{"type":"Feature","geometry":{"type":"Polygon","coordinates":[[[-93.46304,42.2093],[-93.4641,42.20929],[-93.46509,42.20929],[-93.4666,42.20932],[-93.46725,42.20931],[-93.46733,42.2093],[-93.46748,42.2093],[-93.46917,42.20929],[-93.4726,42.20929],[-93.47584,42.20931],[-93.47873,42.20931],[-93.47925,42.20931],[-93.48028,42.20932],[-93.48248,42.2093],[-93.4842,42.20929],[-93.48829,42.20928],[-93.49178,42.20929],[-93.49984,42.20928],[-93.50076,42.20927],[-93.50196,42.20928],[-93.50337,42.20927],[-93.50504,42.20927],[-93.50753,42.20927],[-93.50808,42.20928],[-93.50881,42.20928],[-93.50968,42.20928],[-93.51052,42.20927],[-93.51091,42.20927],[-93.51135,42.20927],[-93.51335,42.20926],[-93.51468,42.20926],[-93.51588,42.20927],[-93.51598,42.20927],[-93.51636,42.20927],[-93.51671,42.20927],[-93.51914,42.20926],[-93.52137,42.20924],[-93.52294,42.20926],[-93.52574,42.20927],[-93.5271,42.20927],[-93.52874,42.20926],[-93.53238,42.20928],[-93.53738,42.20928],[-93.54082,42.20927],[-93.54134,42.20927],[-93.54198,42.20928],[-93.54306,42.20936],[-93.5435,42.20936],[-93.5439,42.20934],[-93.54424,42.20928],[-93.54453,42.20927],[-93.54489,42.20927],[-93.54534,42.20927],[-93.54787,42.20926],[-93.54995,42.20926],[-93.54997,42.20927],[-93.55578,42.20928],[-93.55869,42.2093],[-93.55935,42.20931],[-93.56026,42.2093],[-93.56086,42.20929],[-93.5626,42.20928],[-93.56573,42.20928],[-93.56585,42.20928],[-93.56631,42.20928],[-93.56938,42.20926],[-93.56984,42.20927],[-93.57059,42.20914],[-93.57061,42.20915],[-93.5709,42.20918],[-93.57136,42.20924],[-93.57141,42.20925],[-93.57267,42.20926],[-93.57406,42.20919],[-93.57415,42.20918],[-93.57424,42.20918],[-93.57447,42.20916],[-93.57458,42.20916],[-93.58114,42.20918],[-93.58125,42.20918],[-93.5813,42.20918],[-93.58166,42.20918],[-93.59102,42.20923],[-93.59405,42.20925],[-93.6008,42.20926],[-93.60478,42.20926],[-93.60544,42.20927],[-93.608,42.20928],[-93.61054,42.20929],[-93.62019,42.20932],[-93.62023,42.20932],[-93.63419,42.20937],[-93.63922,42.2094],[-93.63965,42.2094],[-93.6531,42.20938],[-93.65907,42.20933],[-93.66402,42.20934],[-93.66525,42.20934],[-93.66541,42.20934],[-93.66601,42.20935],[-93.66679,42.20935],[-93.67214,42.20936],[-93.67352,42.20936],[-93.67555,42.20936],[-93.67849,42.20936],[-93.68268,42.20936],[-93.68647,42.20935],[-93.68827,42.20937],[-93.68844,42.20937],[-93.68868,42.20937],[-93.69176,42.20935],[-93.69491,42.20935],[-93.69703,42.20935],[-93.69839,42.20934],[-93.69839,42.20654],[-93.69839,42.20593],[-93.69837,42.20086],[-93.69839,42.19698],[-93.6984,42.19542],[-93.69843,42.19242],[-93.69846,42.1906],[-93.69853,42.18704],[-93.69853,42.18519],[-93.69856,42.18332],[-93.69858,42.18098],[-93.69857,42.17374],[-93.69858,42.16934],[-93.69857,42.16654],[-93.69857,42.16347],[-93.69858,42.16268],[-93.69858,42.16213],[-93.69859,42.16109],[-93.69857,42.15973],[-93.69857,42.15955],[-93.69857,42.1595],[-93.69857,42.15831],[-93.69858,42.15741],[-93.69858,42.15732],[-93.69859,42.15667],[-93.69859,42.15535],[-93.69859,42.15345],[-93.69859,42.15208],[-93.69859,42.15166],[-93.69859,42.15096],[-93.69859,42.14972],[-93.69859,42.14743],[-93.69858,42.14329],[-93.69859,42.14115],[-93.6986,42.13762],[-93.6986,42.13158],[-93.6986,42.13081],[-93.69861,42.12964],[-93.6986,42.12849],[-93.69864,42.12498],[-93.69865,42.12313],[-93.69866,42.11897],[-93.69868,42.11722],[-93.69867,42.11557],[-93.69867,42.11256],[-93.69867,42.11182],[-93.69871,42.10725],[-93.6987,42.10698],[-93.69869,42.10644],[-93.69869,42.10458],[-93.69868,42.10304],[-93.69867,42.10161],[-93.69867,42.10126],[-93.69866,42.10035],[-93.69866,42.09994],[-93.69867,42.09924],[-93.69867,42.09808],[-93.69863,42.09643],[-93.69863,42.09607],[-93.69863,42.09506],[-93.69865,42.09452],[-93.69866,42.09247],[-93.69865,42.09211],[-93.69863,42.0862],[-93.69863,42.08546],[-93.69862,42.08493],[-93.69862,42.08424],[-93.69864,42.08288],[-93.69864,42.08272],[-93.69864,42.08097],[-93.69865,42.07888],[-93.69865,42.07798],[-93.69865,42.07641],[-93.69866,42.07366],[-93.69866,42.07074],[-93.69867,42.06985],[-93.69866,42.06859],[-93.69868,42.06258],[-93.69868,42.06253],[-93.69868,42.06247],[-93.69868,42.06244],[-93.69868,42.06211],[-93.69868,42.0617],[-93.69869,42.06116],[-93.6987,42.05704],[-93.69871,42.05621],[-93.6987,42.05473],[-93.6987,42.05458],[-93.6987,42.05416],[-93.69869,42.05344],[-93.69869,42.05337],[-93.69869,42.05328],[-93.69869,42.05313],[-93.69869,42.05236],[-93.69869,42.05155],[-93.6987,42.05036],[-93.6987,42.04905],[-93.6987,42.049],[-93.6987,42.0488],[-93.6987,42.04864],[-93.6987,42.04841],[-93.6987,42.0469],[-93.6987,42.04679],[-93.69871,42.04615],[-93.69872,42.04261],[-93.69871,42.04178],[-93.69875,42.03975],[-93.69876,42.03938],[-93.69876,42.03921],[-93.69876,42.03918],[-93.69877,42.03898],[-93.69877,42.03894],[-93.69875,42.038],[-93.69875,42.03792],[-93.69875,42.03788],[-93.69875,42.03779],[-93.69875,42.03773],[-93.69876,42.03652],[-93.69871,42.03456],[-93.6987,42.0333],[-93.69872,42.02997],[-93.69872,42.0297],[-93.69873,42.02958],[-93.69873,42.02946],[-93.69873,42.02932],[-93.69873,42.02884],[-93.69873,42.02877],[-93.69873,42.02871],[-93.69873,42.02829],[-93.69873,42.02635],[-93.69873,42.02616],[-93.69873,42.02615],[-93.69874,42.02588],[-93.69874,42.02557],[-93.69875,42.0238],[-93.69875,42.02305],[-93.69875,42.02298],[-93.69875,42.02277],[-93.69873,42.02071],[-93.69873,42.02045],[-93.69874,42.01997],[-93.69874,42.0195],[-93.69873,42.01899],[-93.69873,42.01873],[-93.69873,42.01863],[-93.69871,42.01771],[-93.6987,42.01682],[-93.6987,42.01676],[-93.6987,42.01646],[-93.6987,42.01628],[-93.69871,42.01562],[-93.69871,42.0155],[-93.69871,42.0154],[-93.6987,42.01496],[-93.6987,42.01476],[-93.69869,42.01466],[-93.69869,42.01462],[-93.69869,42.01458],[-93.69869,42.01434],[-93.69867,42.01312],[-93.69869,42.01107],[-93.69866,42.00829],[-93.69864,42.00629],[-93.69863,42.0057],[-93.69863,42.00534],[-93.69862,42.00419],[-93.69856,41.99918],[-93.69855,41.99881],[-93.69853,41.99648],[-93.69848,41.99386],[-93.69847,41.99173],[-93.69838,41.98665],[-93.69837,41.98612],[-93.69832,41.98164],[-93.69828,41.97938],[-93.69827,41.97757],[-93.6982,41.97335],[-93.6982,41.97184],[-93.6982,41.97062],[-93.69816,41.96588],[-93.69817,41.96553],[-93.69816,41.96495],[-93.69813,41.9626],[-93.69813,41.96137],[-93.6981,41.95604],[-93.69807,41.95048],[-93.69809,41.94395],[-93.6981,41.94101],[-93.69811,41.93841],[-93.69812,41.93748],[-93.69813,41.93683],[-93.69813,41.93611],[-93.69812,41.93459],[-93.69813,41.93141],[-93.69813,41.92996],[-93.6981,41.92902],[-93.69811,41.92819],[-93.69813,41.92533],[-93.69812,41.92412],[-93.69813,41.92155],[-93.69812,41.92076],[-93.69811,41.91601],[-93.6981,41.91506],[-93.69809,41.91394],[-93.69811,41.91367],[-93.69809,41.91151],[-93.6981,41.91118],[-93.69809,41.90981],[-93.69808,41.90725],[-93.69807,41.90699],[-93.69808,41.90626],[-93.69807,41.90525],[-93.69808,41.90482],[-93.69807,41.90307],[-93.69808,41.90256],[-93.69807,41.90222],[-93.69806,41.90102],[-93.69807,41.90048],[-93.69806,41.89996],[-93.69806,41.89936],[-93.69807,41.89828],[-93.69807,41.89769],[-93.69808,41.89666],[-93.69809,41.89582],[-93.69808,41.89491],[-93.69809,41.89247],[-93.69808,41.89067],[-93.69809,41.88924],[-93.69808,41.88884],[-93.69808,41.88882],[-93.69808,41.88554],[-93.69807,41.88422],[-93.69808,41.88376],[-93.69808,41.88362],[-93.69808,41.88352],[-93.69807,41.88349],[-93.69807,41.8834],[-93.69807,41.88326],[-93.69807,41.88296],[-93.69807,41.88271],[-93.69808,41.88221],[-93.69807,41.88167],[-93.69807,41.88164],[-93.69807,41.8801],[-93.69806,41.87914],[-93.69807,41.87861],[-93.69807,41.87845],[-93.69806,41.87787],[-93.69806,41.87643],[-93.69807,41.87545],[-93.69806,41.87504],[-93.69805,41.87466],[-93.69805,41.87333],[-93.69806,41.87242],[-93.69805,41.87209],[-93.69804,41.87186],[-93.69804,41.87117],[-93.69804,41.87072],[-93.69804,41.87065],[-93.69804,41.8706],[-93.69804,41.87058],[-93.69804,41.87051],[-93.69804,41.87045],[-93.69805,41.86991],[-93.69804,41.86834],[-93.69804,41.868],[-93.69805,41.86728],[-93.69804,41.86662],[-93.69805,41.86611],[-93.69804,41.86569],[-93.69804,41.8656],[-93.69802,41.86528],[-93.69802,41.86513],[-93.69803,41.8648],[-93.69803,41.86433],[-93.69803,41.86337],[-93.69743,41.86336],[-93.69682,41.86336],[-93.69669,41.86336],[-93.69641,41.86336],[-93.69603,41.86336],[-93.69591,41.86336],[-93.69532,41.86336],[-93.69525,41.86336],[-93.695,41.86336],[-93.69464,41.86336],[-93.69462,41.86336],[-93.69364,41.86337],[-93.69318,41.86336],[-93.69316,41.86336],[-93.69247,41.86336],[-93.69201,41.86336],[-93.69196,41.86336],[-93.69138,41.86336],[-93.69097,41.86336],[-93.69045,41.86336],[-93.69006,41.86336],[-93.68936,41.86337],[-93.68879,41.86336],[-93.68834,41.86337],[-93.68817,41.86337],[-93.68809,41.86337],[-93.68804,41.86337],[-93.68757,41.86337],[-93.68645,41.86336],[-93.68635,41.86336],[-93.68584,41.86336],[-93.68301,41.86337],[-93.68019,41.86336],[-93.67835,41.86336],[-93.67744,41.86337],[-93.67487,41.86336],[-93.67302,41.86335],[-93.6709,41.86336],[-93.66882,41.86335],[-93.66705,41.86333],[-93.667,41.86333],[-93.66573,41.86333],[-93.66361,41.86333],[-93.65969,41.86335],[-93.6589,41.86335],[-93.65887,41.86335],[-93.65751,41.86334],[-93.65529,41.86334],[-93.65343,41.86333],[-93.65138,41.86334],[-93.64973,41.86333],[-93.64739,41.86333],[-93.6454,41.86332],[-93.64465,41.86332],[-93.64299,41.86332],[-93.63941,41.8633],[-93.63785,41.86329],[-93.63675,41.86328],[-93.6345,41.86328],[-93.63236,41.86328],[-93.63148,41.86328],[-93.62964,41.86327],[-93.62955,41.86327],[-93.62605,41.86325],[-93.62343,41.86322],[-93.62174,41.86322],[-93.62167,41.86322],[-93.62156,41.86322],[-93.61997,41.86321],[-93.61993,41.86321],[-93.61722,41.86322],[-93.617,41.86322],[-93.61654,41.86322],[-93.61562,41.86321],[-93.61553,41.86321],[-93.61541,41.86321],[-93.61318,41.8632],[-93.61046,41.86321],[-93.61011,41.86321],[-93.60997,41.86321],[-93.60805,41.86321],[-93.60525,41.86322],[-93.60279,41.86321],[-93.60038,41.86321],[-93.59682,41.86322],[-93.59413,41.86324],[-93.5925,41.86323],[-93.59003,41.86323],[-93.58709,41.86323],[-93.58344,41.86322],[-93.5823,41.86322],[-93.58091,41.86322],[-93.58088,41.86322],[-93.58009,41.86322],[-93.57852,41.86323],[-93.57825,41.86323],[-93.5733,41.86323],[-93.57251,41.86322],[-93.57195,41.86322],[-93.57168,41.86322],[-93.57145,41.86321],[-93.57116,41.86321],[-93.57054,41.86321],[-93.57024,41.86321],[-93.57022,41.86321],[-93.56812,41.8632],[-93.56807,41.8632],[-93.56481,41.86319],[-93.56375,41.86321],[-93.56082,41.8632],[-93.56078,41.8632],[-93.55925,41.86321],[-93.5538,41.8632],[-93.54945,41.8632],[-93.54624,41.86321],[-93.5462,41.86321],[-93.54438,41.86322],[-93.54118,41.8632],[-93.54073,41.86319],[-93.53963,41.8632],[-93.53959,41.8632],[-93.53955,41.8632],[-93.5395,41.8632],[-93.53944,41.8632],[-93.53939,41.8632],[-93.53935,41.8632],[-93.53923,41.8632],[-93.53693,41.86323],[-93.53684,41.86323],[-93.534,41.8632],[-93.53194,41.86321],[-93.53168,41.86321],[-93.53165,41.86321],[-93.53068,41.8632],[-93.53039,41.86321],[-93.52956,41.86322],[-93.52871,41.86323],[-93.52865,41.86324],[-93.52668,41.86329],[-93.52436,41.86326],[-93.52296,41.86321],[-93.52158,41.86317],[-93.52154,41.86317],[-93.51995,41.86312],[-93.51991,41.86312],[-93.51435,41.86307],[-93.51204,41.86301],[-93.50759,41.863],[-93.50704,41.86298],[-93.50526,41.86305],[-93.50522,41.86305],[-93.50519,41.86305],[-93.50515,41.86307],[-93.50497,41.86309],[-93.50344,41.86311],[-93.50313,41.86311],[-93.5031,41.86311],[-93.50307,41.86311],[-93.50305,41.86311],[-93.50304,41.86311],[-93.50294,41.86311],[-93.5029,41.86311],[-93.50265,41.86311],[-93.5015,41.86312],[-93.50021,41.86313],[-93.49819,41.86316],[-93.49586,41.86314],[-93.4951,41.86313],[-93.49356,41.86312],[-93.49269,41.86312],[-93.49052,41.86311],[-93.48347,41.8631],[-93.48321,41.86311],[-93.48303,41.86311],[-93.48268,41.86311],[-93.4825,41.86312],[-93.47316,41.86317],[-93.47059,41.86323],[-93.46344,41.86321],[-93.46077,41.86322],[-93.457,41.86321],[-93.4558,41.86321],[-93.45561,41.86321],[-93.45225,41.86321],[-93.45119,41.86321],[-93.44792,41.86321],[-93.44466,41.86321],[-93.44071,41.86319],[-93.43627,41.86319],[-93.43354,41.86317],[-93.43334,41.86317],[-93.43078,41.86316],[-93.42969,41.86316],[-93.42742,41.86315],[-93.42667,41.86315],[-93.42535,41.86314],[-93.42533,41.86314],[-93.42199,41.86315],[-93.41944,41.86316],[-93.41903,41.86316],[-93.41777,41.86317],[-93.41775,41.86317],[-93.41755,41.86317],[-93.416,41.86316],[-93.41411,41.86315],[-93.41388,41.86315],[-93.41327,41.86315],[-93.4085,41.86315],[-93.40609,41.86315],[-93.40606,41.86315],[-93.39591,41.86321],[-93.38784,41.86319],[-93.38205,41.86318],[-93.38202,41.86318],[-93.38095,41.86317],[-93.38091,41.86317],[-93.38088,41.86317],[-93.38086,41.86317],[-93.38082,41.86317],[-93.38052,41.86317],[-93.37556,41.86315],[-93.37519,41.86315],[-93.37518,41.86315],[-93.37516,41.86315],[-93.37513,41.86315],[-93.37508,41.86315],[-93.37503,41.86315],[-93.36731,41.86319],[-93.36729,41.86319],[-93.36709,41.86316],[-93.36288,41.86314],[-93.35928,41.86314],[-93.35675,41.86312],[-93.35479,41.86313],[-93.35472,41.86313],[-93.35457,41.86313],[-93.35416,41.86313],[-93.34793,41.8631],[-93.34587,41.8631],[-93.34337,41.86311],[-93.33461,41.86308],[-93.33293,41.86308],[-93.32855,41.86306],[-93.32759,41.86306],[-93.32424,41.86305],[-93.31975,41.86306],[-93.3159,41.86304],[-93.31305,41.86302],[-93.30922,41.86299],[-93.30768,41.86299],[-93.3003,41.86298],[-93.29984,41.86299],[-93.2986,41.863],[-93.29563,41.86301],[-93.29261,41.86304],[-93.29162,41.86304],[-93.291,41.86306],[-93.29049,41.86304],[-93.2898,41.86297],[-93.28581,41.86292],[-93.28579,41.86292],[-93.28552,41.86292],[-93.28539,41.86292],[-93.27324,41.86286],[-93.27044,41.86288],[-93.26762,41.86286],[-93.25854,41.86281],[-93.25603,41.86281],[-93.25509,41.8628],[-93.255,41.8628],[-93.25458,41.86281],[-93.25446,41.8628],[-93.25429,41.86279],[-93.25397,41.86277],[-93.25384,41.86275],[-93.25256,41.86275],[-93.25245,41.86274],[-93.25236,41.86274],[-93.25234,41.86274],[-93.25228,41.86273],[-93.25211,41.8627],[-93.25194,41.86265],[-93.25169,41.86258],[-93.25163,41.86258],[-93.25157,41.86257],[-93.25151,41.86258],[-93.25144,41.8626],[-93.25138,41.86263],[-93.25134,41.86266],[-93.25097,41.86267],[-93.25022,41.86268],[-93.24753,41.86274],[-93.24409,41.86282],[-93.24302,41.8628],[-93.24202,41.8628],[-93.24199,41.8628],[-93.23856,41.86278],[-93.23666,41.86281],[-93.23492,41.8628],[-93.23417,41.86279],[-93.23397,41.86279],[-93.23394,41.86279],[-93.23378,41.86278],[-93.23352,41.86278],[-93.23323,41.86276],[-93.23308,41.86275],[-93.23268,41.86272],[-93.23186,41.86271],[-93.23186,41.86279],[-93.23185,41.8633],[-93.23185,41.86341],[-93.23185,41.86366],[-93.23185,41.86374],[-93.23185,41.86379],[-93.23185,41.86445],[-93.23184,41.86553],[-93.23184,41.86577],[-93.23184,41.86607],[-93.23184,41.86639],[-93.23184,41.86681],[-93.23182,41.869],[-93.23182,41.8694],[-93.23181,41.87002],[-93.23197,41.87499],[-93.23183,41.88227],[-93.23183,41.88229],[-93.23169,41.88806],[-93.23144,41.89679],[-93.23144,41.89686],[-93.23145,41.89692],[-93.23159,41.90433],[-93.23159,41.90472],[-93.23187,41.91333],[-93.23183,41.91339],[-93.23182,41.91345],[-93.23181,41.91371],[-93.23181,41.91373],[-93.23182,41.91524],[-93.2318,41.9169],[-93.2318,41.91724],[-93.23179,41.91923],[-93.23179,41.92053],[-93.23179,41.92261],[-93.23179,41.92314],[-93.23179,41.92344],[-93.23179,41.92401],[-93.23177,41.9251],[-93.23176,41.927],[-93.23176,41.92766],[-93.23176,41.92773],[-93.23177,41.9282],[-93.23177,41.92896],[-93.23177,41.93075],[-93.23177,41.93096],[-93.23177,41.93141],[-93.23178,41.93396],[-93.2318,41.93732],[-93.23178,41.93871],[-93.23175,41.9407],[-93.23173,41.94213],[-93.23173,41.94298],[-93.23173,41.94316],[-93.23173,41.94582],[-93.23172,41.94996],[-93.23172,41.95069],[-93.23173,41.95368],[-93.23172,41.95737],[-93.23174,41.95895],[-93.23174,41.96035],[-93.23176,41.96319],[-93.23175,41.96443],[-93.23176,41.96469],[-93.23176,41.96611],[-93.23176,41.96696],[-93.23176,41.96713],[-93.23176,41.9672],[-93.23176,41.96919],[-93.23176,41.97164],[-93.23176,41.9753],[-93.23176,41.97613],[-93.23173,41.97815],[-93.23173,41.9789],[-93.23174,41.97988],[-93.23176,41.98175],[-93.23175,41.98361],[-93.23174,41.98549],[-93.23174,41.98749],[-93.23176,41.9907],[-93.23177,41.99109],[-93.23177,41.99153],[-93.23177,41.99339],[-93.23177,41.99564],[-93.23175,41.99914],[-93.23175,42.00121],[-93.23174,42.00183],[-93.23173,42.00242],[-93.23174,42.00314],[-93.23174,42.00448],[-93.23173,42.00525],[-93.23174,42.0057],[-93.23174,42.00659],[-93.23175,42.00697],[-93.23174,42.00739],[-93.23175,42.00783],[-93.23175,42.008],[-93.23175,42.01879],[-93.23175,42.02236],[-93.23172,42.02557],[-93.23169,42.03421],[-93.23171,42.04872],[-93.23171,42.04888],[-93.23171,42.04956],[-93.23171,42.05123],[-93.23169,42.0522],[-93.2317,42.05363],[-93.2317,42.05525],[-93.23169,42.05658],[-93.23168,42.06019],[-93.23168,42.06078],[-93.23167,42.06146],[-93.23166,42.06186],[-93.23167,42.06208],[-93.23167,42.06227],[-93.23168,42.06321],[-93.23168,42.0636],[-93.23168,42.06494],[-93.23167,42.06696],[-93.23167,42.069],[-93.23167,42.06957],[-93.23166,42.07309],[-93.23166,42.07541],[-93.23166,42.07588],[-93.23166,42.07681],[-93.23166,42.07756],[-93.23164,42.0777],[-93.23164,42.07786],[-93.23165,42.07809],[-93.23165,42.07836],[-93.23166,42.07944],[-93.23165,42.07987],[-93.23166,42.08095],[-93.23165,42.08107],[-93.23165,42.08303],[-93.23166,42.08365],[-93.23166,42.085],[-93.23164,42.0864],[-93.23165,42.08687],[-93.23164,42.08896],[-93.23165,42.08947],[-93.23164,42.09048],[-93.23164,42.09217],[-93.23164,42.09219],[-93.23164,42.09377],[-93.23164,42.09467],[-93.23163,42.0986],[-93.23162,42.10245],[-93.23162,42.10667],[-93.23159,42.10853],[-93.23158,42.10986],[-93.23155,42.11557],[-93.23155,42.11701],[-93.23155,42.12054],[-93.23154,42.12238],[-93.23155,42.12424],[-93.23155,42.12457],[-93.23154,42.12632],[-93.23156,42.13147],[-93.23156,42.13664],[-93.23158,42.13673],[-93.23161,42.13678],[-93.23165,42.13683],[-93.23165,42.13708],[-93.23163,42.13905],[-93.2316,42.1438],[-93.23159,42.14504],[-93.23175,42.15063],[-93.23168,42.15067],[-93.23165,42.15072],[-93.23165,42.15079],[-93.23165,42.15096],[-93.23166,42.15133],[-93.23161,42.15135],[-93.2316,42.1524],[-93.23159,42.15796],[-93.2316,42.15964],[-93.2316,42.16175],[-93.23162,42.16384],[-93.23161,42.16545],[-93.23161,42.16582],[-93.23163,42.16885],[-93.23164,42.17022],[-93.23166,42.17178],[-93.23166,42.17192],[-93.23166,42.17209],[-93.23163,42.17715],[-93.23161,42.17801],[-93.23159,42.17868],[-93.23158,42.18011],[-93.23159,42.1802],[-93.23161,42.18025],[-93.23161,42.18052],[-93.23161,42.18307],[-93.23165,42.18571],[-93.23163,42.18686],[-93.23163,42.18749],[-93.23166,42.19047],[-93.2317,42.19495],[-93.2317,42.19501],[-93.23164,42.20183],[-93.23163,42.20217],[-93.23163,42.20227],[-93.23162,42.20399],[-93.23163,42.20605],[-93.23163,42.2061],[-93.23164,42.20621],[-93.23165,42.20639],[-93.23164,42.207],[-93.23164,42.20769],[-93.23164,42.208],[-93.23164,42.20853],[-93.23166,42.20878],[-93.23168,42.20883],[-93.2317,42.20886],[-93.23171,42.20888],[-93.23172,42.20889],[-93.23174,42.20891],[-93.23183,42.20896],[-93.23194,42.209],[-93.23201,42.20901],[-93.2325,42.20901],[-93.23418,42.209],[-93.23507,42.20901],[-93.23864,42.209],[-93.23955,42.20901],[-93.24049,42.20902],[-93.24143,42.20903],[-93.24209,42.20902],[-93.24366,42.20901],[-93.24498,42.20902],[-93.24562,42.20902],[-93.24612,42.20901],[-93.25014,42.20901],[-93.25121,42.209],[-93.2523,42.20901],[-93.25305,42.20902],[-93.25355,42.20902],[-93.25501,42.20901],[-93.25604,42.20903],[-93.25732,42.20901],[-93.25838,42.20901],[-93.25936,42.20902],[-93.26006,42.20903],[-93.26135,42.20902],[-93.26216,42.20903],[-93.26365,42.20903],[-93.2638,42.20903],[-93.26475,42.20903],[-93.26579,42.20903],[-93.26616,42.20903],[-93.26798,42.20905],[-93.269,42.20904],[-93.27186,42.20907],[-93.27242,42.20906],[-93.27519,42.20906],[-93.27551,42.20906],[-93.27653,42.20906],[-93.27768,42.20906],[-93.27832,42.20907],[-93.27955,42.20908],[-93.28023,42.20907],[-93.28106,42.20907],[-93.28331,42.20908],[-93.28597,42.20907],[-93.28725,42.20908],[-93.28827,42.20907],[-93.28904,42.20908],[-93.29015,42.20908],[-93.29064,42.20909],[-93.29292,42.2091],[-93.29403,42.20911],[-93.29875,42.20913],[-93.29962,42.20912],[-93.30038,42.20914],[-93.30124,42.20913],[-93.30215,42.20914],[-93.30501,42.20914],[-93.30596,42.20914],[-93.30697,42.20914],[-93.30907,42.20914],[-93.30965,42.20915],[-93.31047,42.20916],[-93.31207,42.20915],[-93.31296,42.20915],[-93.31394,42.20916],[-93.31496,42.20916],[-93.31651,42.20916],[-93.31828,42.20915],[-93.32146,42.20916],[-93.32324,42.20917],[-93.32648,42.20916],[-93.32771,42.20918],[-93.32857,42.20918],[-93.32912,42.20918],[-93.3301,42.20918],[-93.33379,42.2092],[-93.33616,42.20919],[-93.33788,42.20919],[-93.33886,42.2092],[-93.34297,42.20921],[-93.34437,42.20921],[-93.34661,42.20923],[-93.36226,42.20928],[-93.36242,42.20928],[-93.3661,42.20931],[-93.37518,42.20914],[-93.37586,42.20915],[-93.37819,42.20917],[-93.38556,42.20927],[-93.38995,42.20927],[-93.39261,42.20928],[-93.39399,42.20929],[-93.39541,42.20929],[-93.39762,42.20928],[-93.40194,42.20926],[-93.40267,42.20926],[-93.40347,42.20925],[-93.4036,42.20925],[-93.40503,42.20925],[-93.40778,42.20925],[-93.40978,42.20927],[-93.41127,42.20927],[-93.41254,42.20929],[-93.41281,42.20929],[-93.41297,42.20929],[-93.41358,42.20929],[-93.41361,42.20929],[-93.41458,42.20929],[-93.41669,42.20928],[-93.41799,42.20929],[-93.4191,42.20929],[-93.41965,42.20929],[-93.41987,42.20929],[-93.42166,42.20928],[-93.42287,42.20929],[-93.4245,42.20928],[-93.43366,42.20923],[-93.43423,42.20923],[-93.44166,42.20917],[-93.44193,42.20916],[-93.44394,42.20937],[-93.44419,42.20937],[-93.44585,42.20932],[-93.44647,42.20932],[-93.44804,42.20934],[-93.45178,42.20932],[-93.45253,42.20932],[-93.45369,42.20931],[-93.45589,42.20931],[-93.45953,42.20932],[-93.46304,42.2093]]]},"properties":{"GEOID":"19169","NAME":"Story County"}}